{
    "links": {
        "self": "http://www.neowsapp.com/rest/v1/neo/3798017?api_key=iIulBulltgU6a56xZRHN4H3l9WmuAYTsLGpBGhQ2"
    },
    "id": "3798017",
    "neo_reference_id": "3798017",
    "name": "(2018 BY5)",
    "designation": "2018 BY5",
    "nasa_jpl_url": "http://ssd.jpl.nasa.gov/sbdb.cgi?sstr=3798017",
    "absolute_magnitude_h": 26.1,
    "estimated_diameter": {
        "kilometers": {
            "estimated_diameter_min": 0.0160160338,
            "estimated_diameter_max": 0.0358129403
        },
        "meters": {
            "estimated_diameter_min": 16.0160337979,
            "estimated_diameter_max": 35.8129403019
        },
        "miles": {
            "estimated_diameter_min": 0.0099518989,
            "estimated_diameter_max": 0.0222531225
        },
        "feet": {
            "estimated_diameter_min": 52.5460443254,
            "estimated_diameter_max": 117.4965270602
        }
    },
    "is_potentially_hazardous_asteroid": false,
    "close_approach_data": [
        {
            "close_approach_date": "2018-01-20",
            "close_approach_date_full": "2018-Jan-20 20:48",
            "epoch_date_close_approach": 1516481280000,
            "relative_velocity": {
                "kilometers_per_second": "12.7453219203",
                "kilometers_per_hour": "45883.1589132222",
                "miles_per_hour": "28510.0106036074"
            },
            "miss_distance": {
                "astronomical": "0.0165634659",
                "lunar": "6.4431882351",
                "kilometers": "2477859.218457633",
                "miles": "1539670.3228880154"
            },
            "orbiting_body": "Earth"
        }
    ],
    "orbital_data": {
        "orbit_id": "1",
        "orbit_determination_date": "2018-01-26 10:12:03",
        "first_observation_date": "2018-01-24",
        "last_observation_date": "2018-01-26",
        "data_arc_in_days": 2,
        "observations_used": 18,
        "orbit_uncertainty": "8",
        "minimum_orbit_intersection": ".00661052",
        "jupiter_tisserand_invariant": "3.162",
        "epoch_osculation": "2458143.5",
        "eccentricity": ".648664103017312",
        "semi_major_axis": "2.455402170585218",
        "inclination": "3.970918176378399",
        "ascending_node_longitude": "117.2315443282397",
        "orbital_period": "1405.34314630568",
        "perihelion_distance": ".8626709240557965",
        "perihelion_argument": "318.9813833457931",
        "aphelion_distance": "4.04813341711464",
        "perihelion_time": "2458108.314289142459",
        "mean_anomaly": "9.013354455111534",
        "mean_motion": ".2561651942063803",
        "equinox": "J2000",
        "orbit_class": {
            "orbit_class_type": "APO",
            "orbit_class_description": "Near-Earth asteroid orbits which cross the Earth’s orbit similar to that of 1862 Apollo",
            "orbit_class_range": "a (semi-major axis) > 1.0 AU; q (perihelion) < 1.017 AU"
        }
    },
    "is_sentry_object": false
}